{
  "norad_id": 56418,
  "name": "STARLINK-5356",
  "history": [
    {
      "epoch": "2026-05-03T13:27:30.854592Z",
      "apogee_km": 486.8136933007254,
      "perigee_km": 484.32518789362257,
      "latitude_deg": 4.2483408204036883e-05,
      "longitude_deg": 166.14598433708878,
      "height_km": 485.23726994599224,
      "semi_major_axis_km": 6863.706440597173,
      "eccentricity": 0.00018128,
      "inclination_deg": 43.0027,
      "raan_deg": 229.4872,
      "arg_perigee_deg": 275.0531,
      "mean_anomaly_deg": 85.0114,
      "mean_motion_rev_day": 15.26738689
    },
    {
      "epoch": "2026-05-04T13:00:37.693152Z",
      "apogee_km": 486.56079986391705,
      "perigee_km": 484.5652477189997,
      "latitude_deg": 4.5797620356126165e-05,
      "longitude_deg": 166.35924847582066,
      "height_km": 485.54674878377534,
      "semi_major_axis_km": 6863.700023791458,
      "eccentricity": 0.00014537,
      "inclination_deg": 42.9973,
      "raan_deg": 223.9462,
      "arg_perigee_deg": 258.0113,
      "mean_anomaly_deg": 102.0576,
      "mean_motion_rev_day": 15.2674083
    },
    {
      "epoch": "2026-05-05T12:33:44.805600Z",
      "apogee_km": 486.6467919109,
      "perigee_km": 484.4586476282366,
      "latitude_deg": 1.3483895746946146e-05,
      "longitude_deg": 166.57932988417556,
      "height_km": 485.3780549702675,
      "semi_major_axis_km": 6863.689719769568,
      "eccentricity": 0.0001594,
      "inclination_deg": 42.9993,
      "raan_deg": 218.4132,
      "arg_perigee_deg": 267.4603,
      "mean_anomaly_deg": 92.6066,
      "mean_motion_rev_day": 15.26744268
    },
    {
      "epoch": "2026-05-06T12:06:52.128000Z",
      "apogee_km": 486.60501755486894,
      "perigee_km": 484.5011592689689,
      "latitude_deg": 2.458959801547604e-06,
      "longitude_deg": 166.7975566966482,
      "height_km": 485.4560982834592,
      "semi_major_axis_km": 6863.690088411919,
      "eccentricity": 0.00015326,
      "inclination_deg": 43.0008,
      "raan_deg": 212.8792,
      "arg_perigee_deg": 263.1176,
      "mean_anomaly_deg": 96.9501,
      "mean_motion_rev_day": 15.26744145
    },
    {
      "epoch": "2026-05-07T11:39:58.238208Z",
      "apogee_km": 486.80192173996966,
      "perigee_km": 484.23354213927723,
      "latitude_deg": -4.460491561177762e-05,
      "longitude_deg": 167.01740989464983,
      "height_km": 485.1827083205632,
      "semi_major_axis_km": 6863.654731939623,
      "eccentricity": 0.0001871,
      "inclination_deg": 42.9979,
      "raan_deg": 207.3418,
      "arg_perigee_deg": 275.0017,
      "mean_anomaly_deg": 85.062,
      "mean_motion_rev_day": 15.26755942
    },
    {
      "epoch": "2026-05-08T11:12:13.779360Z",
      "apogee_km": 485.1723243192255,
      "perigee_km": 483.0340502768631,
      "latitude_deg": -2.6275966132527057e-05,
      "longitude_deg": 167.44881460435673,
      "height_km": 484.51811909805025,
      "semi_major_axis_km": 6862.2401872980445,
      "eccentricity": 0.0001558,
      "inclination_deg": 43.0017,
      "raan_deg": 201.8046,
      "arg_perigee_deg": 233.3484,
      "mean_anomaly_deg": 126.7224,
      "mean_motion_rev_day": 15.27228042
    },
    {
      "epoch": "2026-05-09T10:44:48.959232Z",
      "apogee_km": 485.17392629731785,
      "perigee_km": 482.50187327134245,
      "latitude_deg": -1.4263230436533406e-05,
      "longitude_deg": 167.79956124365788,
      "height_km": 483.72567553435385,
      "semi_major_axis_km": 6861.97489978433,
      "eccentricity": 0.0001947,
      "inclination_deg": 43.0023,
      "raan_deg": 196.2688,
      "arg_perigee_deg": 265.261,
      "mean_anomaly_deg": 94.8019,
      "mean_motion_rev_day": 15.27316608
    },
    {
      "epoch": "2026-05-09T21:43:55.663968Z",
      "apogee_km": 484.53492907428154,
      "perigee_km": 482.11283338320754,
      "latitude_deg": 6.012780790985519e-06,
      "longitude_deg": -0.012300395002968255,
      "height_km": 483.7201545933476,
      "semi_major_axis_km": 6861.460881228744,
      "eccentricity": 0.0001765,
      "inclination_deg": 43.003,
      "raan_deg": 193.686,
      "arg_perigee_deg": 239.2489,
      "mean_anomaly_deg": 120.8189,
      "mean_motion_rev_day": 15.27488237
    },
    {
      "epoch": "2026-05-11T20:48:44.872992Z",
      "apogee_km": 484.84433494517,
      "perigee_km": 481.81019544709943,
      "latitude_deg": -1.7331603009374436e-05,
      "longitude_deg": 0.7684151256495128,
      "height_km": 483.8412729869031,
      "semi_major_axis_km": 6861.464265196134,
      "eccentricity": 0.0002211,
      "inclination_deg": 43.0019,
      "raan_deg": 182.6053,
      "arg_perigee_deg": 240.9449,
      "mean_anomaly_deg": 119.1181,
      "mean_motion_rev_day": 15.27487107
    },
    {
      "epoch": "2026-05-12T20:20:57.168960Z",
      "apogee_km": 484.517692264194,
      "perigee_km": 481.56601312176645,
      "latitude_deg": 1.1163510439720313e-06,
      "longitude_deg": 1.2157820882910924,
      "height_km": 482.6385368728674,
      "semi_major_axis_km": 6861.17885269298,
      "eccentricity": 0.0002151,
      "inclination_deg": 43.003,
      "raan_deg": 177.0705,
      "arg_perigee_deg": 277.0426,
      "mean_anomaly_deg": 83.0181,
      "mean_motion_rev_day": 15.27582419
    },
    {
      "epoch": "2026-05-13T12:02:31.581888Z",
      "apogee_km": 484.3337547488909,
      "perigee_km": 481.740230979588,
      "latitude_deg": -7.522974287979195e-06,
      "longitude_deg": 121.48360188981991,
      "height_km": 482.8392960300809,
      "semi_major_axis_km": 6861.173992864239,
      "eccentricity": 0.000189,
      "inclination_deg": 43.0029,
      "raan_deg": 173.3762,
      "arg_perigee_deg": 268.9001,
      "mean_anomaly_deg": 91.1634,
      "mean_motion_rev_day": 15.27584042
    },
    {
      "epoch": "2026-05-13T12:02:31.582752Z",
      "apogee_km": 484.33368613715083,
      "perigee_km": 481.74029959132804,
      "latitude_deg": -8.31894668537261e-06,
      "longitude_deg": 121.48359743120578,
      "height_km": 482.83929471413944,
      "semi_major_axis_km": 6861.173992864239,
      "eccentricity": 0.00018899,
      "inclination_deg": 43.0029,
      "raan_deg": 173.3762,
      "arg_perigee_deg": 268.9001,
      "mean_anomaly_deg": 91.1634,
      "mean_motion_rev_day": 15.27584042
    },
    {
      "epoch": "2026-05-15T01:42:15.981120Z",
      "apogee_km": 484.3555338498418,
      "perigee_km": 481.71055279814027,
      "latitude_deg": -5.672897492508875e-06,
      "longitude_deg": -93.86102952559988,
      "height_km": 482.7388409709595,
      "semi_major_axis_km": 6861.17004332399,
      "eccentricity": 0.00019275,
      "inclination_deg": 43.0031,
      "raan_deg": 164.5133,
      "arg_perigee_deg": 273.1068,
      "mean_anomaly_deg": 86.9563,
      "mean_motion_rev_day": 15.27585361
    },
    {
      "epoch": "2026-05-16T18:30:19.571904Z",
      "apogee_km": 484.39328188042236,
      "perigee_km": 481.7119289826205,
      "latitude_deg": 1.4809740631923285e-05,
      "longitude_deg": 2.847190958388613,
      "height_km": 482.6990187410527,
      "semi_major_axis_km": 6861.189605431521,
      "eccentricity": 0.0001954,
      "inclination_deg": 43.0033,
      "raan_deg": 154.9121,
      "arg_perigee_deg": 275.6119,
      "mean_anomaly_deg": 84.451,
      "mean_motion_rev_day": 15.27578828
    }
  ]
}